{"type": "FeatureCollection", "features": [ {"type": "Feature", "properties": {"norad_id": 66524, "name": "STARLINK-35687", "group": "last-30-days", "lat": -24.605867819760583, "lon": -79.3194170689019, "alt_km": 415.37861796562083, "timestamp": "2025-12-09T18:55:16.022234+00:00", "meta": {"OBJECT_NAME": "STARLINK-35687", "OBJECT_ID": "2025-265J", "EPOCH": "2025-12-09T14:00:01.999872", "MEAN_MOTION": 15.51881765, "ECCENTRICITY": 0.00015048, "INCLINATION": 42.9999, "RA_OF_ASC_NODE": 72.4455, "ARG_OF_PERICENTER": 289.0118, "MEAN_ANOMALY": 222.0669, "EPHEMERIS_TYPE": 0, "CLASSIFICATION_TYPE": "U", "NORAD_CAT_ID": 66524, "ELEMENT_SET_NO": 999, "REV_AT_EPOCH": 448, "BSTAR": -0.030598928, "MEAN_MOTION_DOT": -0.01682903, "MEAN_MOTION_DDOT": 0}, "tle": {"line1": "1 66524U 25265J   25343.58335648 -.01682903  00000+0 -30599-1 0  9999", "line2": "2 66524  42.9999  72.4455 0001504 289.0118 222.0669 15.51881765  4483"}}, "geometry": {"type": "Point", "coordinates": [-79.3194170689019, -24.605867819760583]}}, {"type": "Feature", "properties": {"norad_id": 66525, "name": "STARLINK-35975", "group": "last-30-days", "lat": -25.72845626354196, "lon": -77.62048384518803, "alt_km": 415.349049021288, "timestamp": "2025-12-09T18:55:16.022245+00:00", "meta": {"OBJECT_NAME": "STARLINK-35975", "OBJECT_ID": "2025-265K", "EPOCH": "2025-12-09T14:00:01.999872", "MEAN_MOTION": 15.51904021, "ECCENTRICITY": 0.00013708, "INCLINATION": 43, "RA_OF_ASC_NODE": 72.4413, "ARG_OF_PERICENTER": 285.5217, "MEAN_ANOMALY": 227.4499, "EPHEMERIS_TYPE": 0, "CLASSIFICATION_TYPE": "U", "NORAD_CAT_ID": 66525, "ELEMENT_SET_NO": 999, "REV_AT_EPOCH": 448, "BSTAR": -0.030876852, "MEAN_MOTION_DOT": -0.01697737, "MEAN_MOTION_DDOT": 0}, "tle": {"line1": "1 66525U 25265K   25343.58335648 -.01697737  00000+0 -30877-1 0  9990", "line2": "2 66525  43.0000  72.4413 0001370 285.5217 227.4499 15.51904021  4486"}}, "geometry": {"type": "Point", "coordinates": [-77.62048384518803, -25.72845626354196]}}, {"type": "Feature", "properties": {"norad_id": 66526, "name": "STARLINK-35932", "group": "last-30-days", "lat": -26.833154067103006, "lon": -75.88529361736201, "alt_km": 415.425048789868, "timestamp": "2025-12-09T18:55:16.022257+00:00", "meta": {"OBJECT_NAME": "STARLINK-35932", "OBJECT_ID": "2025-265L", "EPOCH": "2025-12-09T14:00:01.999872", "MEAN_MOTION": 15.51902978, "ECCENTRICITY": 0.00014651, "INCLINATION": 43.0001, "RA_OF_ASC_NODE": 72.4375, "ARG_OF_PERICENTER": 288.6923, "MEAN_ANOMALY": 226.1929, "EPHEMERIS_TYPE": 0, "CLASSIFICATION_TYPE": "U", "NORAD_CAT_ID": 66526, "ELEMENT_SET_NO": 999, "REV_AT_EPOCH": 437, "BSTAR": -0.030762269, "MEAN_MOTION_DOT": -0.01692088, "MEAN_MOTION_DDOT": 0}, "tle": {"line1": "1 66526U 25265L   25343.58335648 -.01692088  00000+0 -30762-1 0  9998", "line2": "2 66526  43.0001  72.4375 0001465 288.6923 226.1929 15.51902978  4379"}}, "geometry": {"type": "Point", "coordinates": [-75.88529361736201, -26.833154067103006]}}, {"type": "Feature", "properties": {"norad_id": 66527, "name": "STARLINK-35935", "group": "last-30-days", "lat": -27.922317034361136, "lon": -74.1070424280032, "alt_km": 415.4517176888148, "timestamp": "2025-12-09T18:55:16.022268+00:00", "meta": {"OBJECT_NAME": "STARLINK-35935", "OBJECT_ID": "2025-265M", "EPOCH": "2025-12-09T14:00:01.999872", "MEAN_MOTION": 15.51915996, "ECCENTRICITY": 0.00013214, "INCLINATION": 42.9999, "RA_OF_ASC_NODE": 72.4322, "ARG_OF_PERICENTER": 286.111, "MEAN_ANOMALY": 230.6904, "EPHEMERIS_TYPE": 0, "CLASSIFICATION_TYPE": "U", "NORAD_CAT_ID": 66527, "ELEMENT_SET_NO": 999, "REV_AT_EPOCH": 448, "BSTAR": -0.031171746, "MEAN_MOTION_DOT": -0.01712865, "MEAN_MOTION_DDOT": 0}, "tle": {"line1": "1 66527U 25265M   25343.58335648 -.01712865  00000+0 -31172-1 0  9991", "line2": "2 66527  42.9999  72.4322 0001321 286.1110 230.6904 15.51915996  4487"}}, "geometry": {"type": "Point", "coordinates": [-74.1070424280032, -27.922317034361136]}}, {"type": "Feature", "properties": {"norad_id": 66528, "name": "STARLINK-35928", "group": "last-30-days", "lat": -28.982057946915294, "lon": -72.30291519118634, "alt_km": 415.4810806802725, "timestamp": "2025-12-09T18:55:16.022278+00:00", "meta": {"OBJECT_NAME": "STARLINK-35928", "OBJECT_ID": "2025-265N", "EPOCH": "2025-12-09T14:00:01.999872", "MEAN_MOTION": 15.5190803, "ECCENTRICITY": 0.00014161, "INCLINATION": 43.0002, "RA_OF_ASC_NODE": 72.428, "ARG_OF_PERICENTER": 286.866, "MEAN_ANOMALY": 231.8523, "EPHEMERIS_TYPE": 0, "CLASSIFICATION_TYPE": "U", "NORAD_CAT_ID": 66528, "ELEMENT_SET_NO": 999, "REV_AT_EPOCH": 448, "BSTAR": -0.030905068, "MEAN_MOTION_DOT": -0.01699368, "MEAN_MOTION_DDOT": 0}, "tle": {"line1": "1 66528U 25265N   25343.58335648 -.01699368  00000+0 -30905-1 0  9997", "line2": "2 66528  43.0002  72.4280 0001416 286.8660 231.8523 15.51908030  4481"}}, "geometry": {"type": "Point", "coordinates": [-72.30291519118634, -28.982057946915294]}}, {"type": "Feature", "properties": {"norad_id": 66529, "name": "STARLINK-35933", "group": "last-30-days", "lat": -30.021089978839584, "lon": -70.45530247638469, "alt_km": 415.4255935713936, "timestamp": "2025-12-09T18:55:16.022288+00:00", "meta": {"OBJECT_NAME": "STARLINK-35933", "OBJECT_ID": "2025-265P", "EPOCH": "2025-12-09T14:00:01.999872", "MEAN_MOTION": 15.51915545, "ECCENTRICITY": 0.00014346, "INCLINATION": 43, "RA_OF_ASC_NODE": 72.4223, "ARG_OF_PERICENTER": 282.2168, "MEAN_ANOMALY": 238.4181, "EPHEMERIS_TYPE": 0, "CLASSIFICATION_TYPE": "U", "NORAD_CAT_ID": 66529, "ELEMENT_SET_NO": 999, "REV_AT_EPOCH": 448, "BSTAR": -0.031147603, "MEAN_MOTION_DOT": -0.01711711, "MEAN_MOTION_DDOT": 0}, "tle": {"line1": "1 66529U 25265P   25343.58335648 -.01711711  00000+0 -31148-1 0  9995", "line2": "2 66529  43.0000  72.4223 0001434 282.2168 238.4181 15.51915545  4482"}}, "geometry": {"type": "Point", "coordinates": [-70.45530247638469, -30.021089978839584]}}, {"type": "Feature", "properties": {"norad_id": 66530, "name": "STARLINK-35961", "group": "last-30-days", "lat": -31.03058755571854, "lon": -68.57359604884988, "alt_km": 415.5374995940674, "timestamp": "2025-12-09T18:55:16.022298+00:00", "meta": {"OBJECT_NAME": "STARLINK-35961", "OBJECT_ID": "2025-265Q", "EPOCH": "2025-12-09T14:00:01.999872", "MEAN_MOTION": 15.51910373, "ECCENTRICITY": 0.0001439, "INCLINATION": 43.0001, "RA_OF_ASC_NODE": 72.4182, "ARG_OF_PERICENTER": 286.7155, "MEAN_ANOMALY": 235.8369, "EPHEMERIS_TYPE": 0, "CLASSIFICATION_TYPE": "U", "NORAD_CAT_ID": 66530, "ELEMENT_SET_NO": 999, "REV_AT_EPOCH": 448, "BSTAR": -0.030988043, "MEAN_MOTION_DOT": -0.01703588, "MEAN_MOTION_DDOT": 0}, "tle": {"line1": "1 66530U 25265Q   25343.58335648 -.01703588  00000+0 -30988-1 0  9991", "line2": "2 66530  43.0001  72.4182 0001439 286.7155 235.8369 15.51910373  4482"}}, "geometry": {"type": "Point", "coordinates": [-68.57359604884988, -31.03058755571854]}}, {"type": "Feature", "properties": {"norad_id": 66531, "name": "STARLINK-35960", "group": "last-30-days", "lat": -32.0129368577146, "lon": -66.65227506773375, "alt_km": 415.72530230573466, "timestamp": "2025-12-09T18:55:16.022310+00:00", "meta": {"OBJECT_NAME": "STARLINK-35960", "OBJECT_ID": "2025-265R", "EPOCH": "2025-12-09T14:00:01.999872", "MEAN_MOTION": 15.51903867, "ECCENTRICITY": 0.00011161, "INCLINATION": 43.0001, "RA_OF_ASC_NODE": 72.412, "ARG_OF_PERICENTER": 289.4884, "MEAN_ANOMALY": 234.9799, "EPHEMERIS_TYPE": 0, "CLASSIFICATION_TYPE": "U", "NORAD_CAT_ID": 66531, "ELEMENT_SET_NO": 999, "REV_AT_EPOCH": 448, "BSTAR": -0.030738011, "MEAN_MOTION_DOT": -0.01690773, "MEAN_MOTION_DDOT": 0}, "tle": {"line1": "1 66531U 25265R   25343.58335648 -.01690773  00000+0 -30738-1 0  9996", "line2": "2 66531  43.0001  72.4120 0001116 289.4884 234.9799 15.51903867  4483"}}, "geometry": {"type": "Point", "coordinates": [-66.65227506773375, -32.0129368577146]}}, {"type": "Feature", "properties": {"norad_id": 66532, "name": "STARLINK-35914", "group": "last-30-days", "lat": -32.96599972644042, "lon": -64.68563939346241, "alt_km": 415.61477063310394, "timestamp": "2025-12-09T18:55:16.022320+00:00", "meta": {"OBJECT_NAME": "STARLINK-35914", "OBJECT_ID": "2025-265S", "EPOCH": "2025-12-09T14:00:01.999872", "MEAN_MOTION": 15.51908749, "ECCENTRICITY": 0.00014212, "INCLINATION": 42.9997, "RA_OF_ASC_NODE": 72.4082, "ARG_OF_PERICENTER": 287.5428, "MEAN_ANOMALY": 238.8445, "EPHEMERIS_TYPE": 0, "CLASSIFICATION_TYPE": "U", "NORAD_CAT_ID": 66532, "ELEMENT_SET_NO": 999, "REV_AT_EPOCH": 448, "BSTAR": -0.03095321, "MEAN_MOTION_DOT": -0.01701777, "MEAN_MOTION_DDOT": 0}, "tle": {"line1": "1 66532U 25265S   25343.58335648 -.01701777  00000+0 -30953-1 0  9993", "line2": "2 66532  42.9997  72.4082 0001421 287.5428 238.8445 15.51908749  4480"}}, "geometry": {"type": "Point", "coordinates": [-64.68563939346241, -32.96599972644042]}}, {"type": "Feature", "properties": {"norad_id": 66533, "name": "STARLINK-35707", "group": "last-30-days", "lat": -33.88852979063407, "lon": -62.6766427784433, "alt_km": 415.63873088481705, "timestamp": "2025-12-09T18:55:16.022331+00:00", "meta": {"OBJECT_NAME": "STARLINK-35707", "OBJECT_ID": "2025-265T", "EPOCH": "2025-12-09T14:00:01.999872", "MEAN_MOTION": 15.51911622, "ECCENTRICITY": 0.00013729, "INCLINATION": 42.9999, "RA_OF_ASC_NODE": 72.4033, "ARG_OF_PERICENTER": 286.5076, "MEAN_ANOMALY": 241.7971, "EPHEMERIS_TYPE": 0, "CLASSIFICATION_TYPE": "U", "NORAD_CAT_ID": 66533, "ELEMENT_SET_NO": 999, "REV_AT_EPOCH": 448, "BSTAR": -0.031045437, "MEAN_MOTION_DOT": -0.01706445, "MEAN_MOTION_DDOT": 0}, "tle": {"line1": "1 66533U 25265T   25343.58335648 -.01706445  00000+0 -31045-1 0  9994", "line2": "2 66533  42.9999  72.4033 0001372 286.5076 241.7971 15.51911622  4483"}}, "geometry": {"type": "Point", "coordinates": [-62.6766427784433, -33.88852979063407]}}]}